CCSDS_OMM_VERS = 2.0
CREATION_DATE  = 
ORIGINATOR     = 

OBJECT_NAME    = STARLINK-35827
OBJECT_ID      = 2025-254T
CENTER_NAME    = EARTH
REF_FRAME      = TEME
TIME_SYSTEM    = UTC
MEAN_ELEMENT_THEORY = SGP/SGP4

EPOCH          = 2025-11-20T18:41:42.759168
MEAN_MOTION    = 15.75340068
ECCENTRICITY   = .00016125
INCLINATION    = 53.1573
RA_OF_ASC_NODE = 23.8856
ARG_OF_PERICENTER = 6.3424
MEAN_ANOMALY   = 353.7616

EPHEMERIS_TYPE = 0
CLASSIFICATION_TYPE = U
NORAD_CAT_ID   = 66365
ELEMENT_SET_NO = 999
REV_AT_EPOCH   = 222
BSTAR          = -.18397552E-2
MEAN_MOTION_DOT = -.274927E-2
MEAN_MOTION_DDOT = 0

CCSDS_OMM_VERS = 2.0
CREATION_DATE  = 
ORIGINATOR     = 

OBJECT_NAME    = STARLINK-35845
OBJECT_ID      = 2025-254U
CENTER_NAME    = EARTH
REF_FRAME      = TEME
TIME_SYSTEM    = UTC
MEAN_ELEMENT_THEORY = SGP/SGP4

EPOCH          = 2025-11-20T17:10:50.958048
MEAN_MOTION    = 15.75494029
ECCENTRICITY   = .00012553
INCLINATION    = 53.1570
RA_OF_ASC_NODE = 24.2031
ARG_OF_PERICENTER = 154.1742
MEAN_ANOMALY   = 205.9341

EPHEMERIS_TYPE = 0
CLASSIFICATION_TYPE = U
NORAD_CAT_ID   = 66366
ELEMENT_SET_NO = 999
REV_AT_EPOCH   = 221
BSTAR          = -.52935161E-2
MEAN_MOTION_DOT = -.752052E-2
MEAN_MOTION_DDOT = 0

CCSDS_OMM_VERS = 2.0
CREATION_DATE  = 
ORIGINATOR     = 

OBJECT_NAME    = STARLINK-35846
OBJECT_ID      = 2025-254V
CENTER_NAME    = EARTH
REF_FRAME      = TEME
TIME_SYSTEM    = UTC
MEAN_ELEMENT_THEORY = SGP/SGP4

EPOCH          = 2025-11-20T18:41:13.267392
MEAN_MOTION    = 15.75227079
ECCENTRICITY   = .00040595
INCLINATION    = 53.1577
RA_OF_ASC_NODE = 23.8827
ARG_OF_PERICENTER = 69.7562
MEAN_ANOMALY   = 290.3895

EPHEMERIS_TYPE = 0
CLASSIFICATION_TYPE = U
NORAD_CAT_ID   = 66367
ELEMENT_SET_NO = 999
REV_AT_EPOCH   = 222
BSTAR          = -.24910871E-2
MEAN_MOTION_DOT = -.36656E-2
MEAN_MOTION_DDOT = 0

CCSDS_OMM_VERS = 2.0
CREATION_DATE  = 
ORIGINATOR     = 

OBJECT_NAME    = STARLINK-34861
OBJECT_ID      = 2025-254W
CENTER_NAME    = EARTH
REF_FRAME      = TEME
TIME_SYSTEM    = UTC
MEAN_ELEMENT_THEORY = SGP/SGP4

EPOCH          = 2025-11-20T17:08:49.445952
MEAN_MOTION    = 15.75052462
ECCENTRICITY   = .00004975
INCLINATION    = 53.1569
RA_OF_ASC_NODE = 24.1927
ARG_OF_PERICENTER = 95.3305
MEAN_ANOMALY   = 264.7772

EPHEMERIS_TYPE = 0
CLASSIFICATION_TYPE = U
NORAD_CAT_ID   = 66368
ELEMENT_SET_NO = 999
REV_AT_EPOCH   = 221
BSTAR          = -.61680932E-2
MEAN_MOTION_DOT = -.849208E-2
MEAN_MOTION_DDOT = 0

CCSDS_OMM_VERS = 2.0
CREATION_DATE  = 
ORIGINATOR     = 

OBJECT_NAME    = STARLINK-35795
OBJECT_ID      = 2025-254X
CENTER_NAME    = EARTH
REF_FRAME      = TEME
TIME_SYSTEM    = UTC
MEAN_ELEMENT_THEORY = SGP/SGP4

EPOCH          = 2025-11-20T17:09:19.262592
MEAN_MOTION    = 15.75193527
ECCENTRICITY   = .00004405
INCLINATION    = 53.1564
RA_OF_ASC_NODE = 24.1955
ARG_OF_PERICENTER = 67.1719
MEAN_ANOMALY   = 292.9347

EPHEMERIS_TYPE = 0
CLASSIFICATION_TYPE = U
NORAD_CAT_ID   = 66369
ELEMENT_SET_NO = 999
REV_AT_EPOCH   = 221
BSTAR          = -.54823648E-2
MEAN_MOTION_DOT = -.767057E-2
MEAN_MOTION_DDOT = 0

CCSDS_OMM_VERS = 2.0
CREATION_DATE  = 
ORIGINATOR     = 

OBJECT_NAME    = STARLINK-35824
OBJECT_ID      = 2025-254Y
CENTER_NAME    = EARTH
REF_FRAME      = TEME
TIME_SYSTEM    = UTC
MEAN_ELEMENT_THEORY = SGP/SGP4

EPOCH          = 2025-11-20T17:08:18.598560
MEAN_MOTION    = 15.75084207
ECCENTRICITY   = .00003427
INCLINATION    = 53.1565
RA_OF_ASC_NODE = 24.1906
ARG_OF_PERICENTER = 167.3580
MEAN_ANOMALY   = 192.7449

EPHEMERIS_TYPE = 0
CLASSIFICATION_TYPE = U
NORAD_CAT_ID   = 66370
ELEMENT_SET_NO = 999
REV_AT_EPOCH   = 221
BSTAR          = -.45878979E-2
MEAN_MOTION_DOT = -.647983E-2
MEAN_MOTION_DDOT = 0

CCSDS_OMM_VERS = 2.0
CREATION_DATE  = 
ORIGINATOR     = 

OBJECT_NAME    = STARLINK-35804
OBJECT_ID      = 2025-254Z
CENTER_NAME    = EARTH
REF_FRAME      = TEME
TIME_SYSTEM    = UTC
MEAN_ELEMENT_THEORY = SGP/SGP4

EPOCH          = 2025-11-20T15:35:55.272192
MEAN_MOTION    = 15.74928208
ECCENTRICITY   = .00009538
INCLINATION    = 53.1573
RA_OF_ASC_NODE = 24.5025
ARG_OF_PERICENTER = 52.9166
MEAN_ANOMALY   = 307.1941

EPHEMERIS_TYPE = 0
CLASSIFICATION_TYPE = U
NORAD_CAT_ID   = 66371
ELEMENT_SET_NO = 999
REV_AT_EPOCH   = 220
BSTAR          = -.53811594E-2
MEAN_MOTION_DOT = -.746164E-2
MEAN_MOTION_DDOT = 0

CCSDS_OMM_VERS = 2.0
CREATION_DATE  = 
ORIGINATOR     = 

OBJECT_NAME    = STARLINK-35821
OBJECT_ID      = 2025-254AA
CENTER_NAME    = EARTH
REF_FRAME      = TEME
TIME_SYSTEM    = UTC
MEAN_ELEMENT_THEORY = SGP/SGP4

EPOCH          = 2025-11-20T18:39:14.170176
MEAN_MOTION    = 15.74641717
ECCENTRICITY   = .00012297
INCLINATION    = 53.1569
RA_OF_ASC_NODE = 23.8726
ARG_OF_PERICENTER = 61.1136
MEAN_ANOMALY   = 299.0007

EPHEMERIS_TYPE = 0
CLASSIFICATION_TYPE = U
NORAD_CAT_ID   = 66372
ELEMENT_SET_NO = 999
REV_AT_EPOCH   = 222
BSTAR          = -.50226141E-2
MEAN_MOTION_DOT = -.692276E-2
MEAN_MOTION_DDOT = 0

CCSDS_OMM_VERS = 2.0
CREATION_DATE  = 
ORIGINATOR     = 

OBJECT_NAME    = STARLINK-35809
OBJECT_ID      = 2025-254AB
CENTER_NAME    = EARTH
REF_FRAME      = TEME
TIME_SYSTEM    = UTC
MEAN_ELEMENT_THEORY = SGP/SGP4

EPOCH          = 2025-11-20T15:35:25.141920
MEAN_MOTION    = 15.74882708
ECCENTRICITY   = .00006417
INCLINATION    = 53.1558
RA_OF_ASC_NODE = 24.4976
ARG_OF_PERICENTER = 110.7556
MEAN_ANOMALY   = 249.3533

EPHEMERIS_TYPE = 0
CLASSIFICATION_TYPE = U
NORAD_CAT_ID   = 66373
ELEMENT_SET_NO = 999
REV_AT_EPOCH   = 220
BSTAR          = -.56308967E-2
MEAN_MOTION_DOT = -.776341E-2
MEAN_MOTION_DDOT = 0

CCSDS_OMM_VERS = 2.0
CREATION_DATE  = 
ORIGINATOR     = 

OBJECT_NAME    = STARLINK-35831
OBJECT_ID      = 2025-254AC
CENTER_NAME    = EARTH
REF_FRAME      = TEME
TIME_SYSTEM    = UTC
MEAN_ELEMENT_THEORY = SGP/SGP4

EPOCH          = 2025-11-20T18:37:46.562304
MEAN_MOTION    = 15.74407577
ECCENTRICITY   = .00017992
INCLINATION    = 53.1567
RA_OF_ASC_NODE = 23.8653
ARG_OF_PERICENTER = 51.5032
MEAN_ANOMALY   = 308.6149

EPHEMERIS_TYPE = 0
CLASSIFICATION_TYPE = U
NORAD_CAT_ID   = 66374
ELEMENT_SET_NO = 999
REV_AT_EPOCH   = 222
BSTAR          = -.40372506E-2
MEAN_MOTION_DOT = -.559672E-2
MEAN_MOTION_DDOT = 0

CCSDS_OMM_VERS = 2.0
CREATION_DATE  = 
ORIGINATOR     = 

OBJECT_NAME    = STARLINK-35826
OBJECT_ID      = 2025-254AD
CENTER_NAME    = EARTH
REF_FRAME      = TEME
TIME_SYSTEM    = UTC
MEAN_ELEMENT_THEORY = SGP/SGP4

EPOCH          = 2025-11-20T17:05:51.919872
MEAN_MOTION    = 15.74466783
ECCENTRICITY   = .00007632
INCLINATION    = 53.1569
RA_OF_ASC_NODE = 24.1790
ARG_OF_PERICENTER = 95.7492
MEAN_ANOMALY   = 264.3615

EPHEMERIS_TYPE = 0
CLASSIFICATION_TYPE = U
NORAD_CAT_ID   = 66375
ELEMENT_SET_NO = 999
REV_AT_EPOCH   = 221
BSTAR          = -.5454711E-2
MEAN_MOTION_DOT = -.741604E-2
MEAN_MOTION_DDOT = 0

CCSDS_OMM_VERS = 2.0
CREATION_DATE  = 
ORIGINATOR     = 

OBJECT_NAME    = SHIYAN-32 01
OBJECT_ID      = 2025-255A
CENTER_NAME    = EARTH
REF_FRAME      = TEME
TIME_SYSTEM    = UTC
MEAN_ELEMENT_THEORY = SGP/SGP4

EPOCH          = 2025-11-20T20:23:19.130208
MEAN_MOTION    = 15.41692948
ECCENTRICITY   = .00131099
INCLINATION    = 52.9970
RA_OF_ASC_NODE = 282.0400
ARG_OF_PERICENTER = 333.1679
MEAN_ANOMALY   = 26.8645

EPHEMERIS_TYPE = 0
CLASSIFICATION_TYPE = U
NORAD_CAT_ID   = 66376
ELEMENT_SET_NO = 999
REV_AT_EPOCH   = 197
BSTAR          = .45074551E-3
MEAN_MOTION_DOT = .19001E-3
MEAN_MOTION_DDOT = 0

