STARLINK-35827          
1 66365U 25254T   25324.77896712 -.00274927  00000+0 -18398-2 0  9990
2 66365  53.1573  23.8856 0001612   6.3424 353.7616 15.75340068  2229
STARLINK-35845          
1 66366U 25254U   25324.71586757 -.00752052  00000+0 -52935-2 0  9995
2 66366  53.1570  24.2031 0001255 154.1742 205.9341 15.75494029  2214
STARLINK-35846          
1 66367U 25254V   25324.77862578 -.00366560  00000+0 -24911-2 0  9998
2 66367  53.1577  23.8827 0004059  69.7562 290.3895 15.75227079  2228
STARLINK-34861          
1 66368U 25254W   25324.71446118 -.00849208  00000+0 -61681-2 0  9991
2 66368  53.1569  24.1927 0000497  95.3305 264.7772 15.75052462  2217
STARLINK-35795          
1 66369U 25254X   25324.71480628 -.00767057  00000+0 -54824-2 0  9998
2 66369  53.1564  24.1955 0000440  67.1719 292.9347 15.75193527  2217
STARLINK-35824          
1 66370U 25254Y   25324.71410415 -.00647983  00000+0 -45879-2 0  9992
2 66370  53.1565  24.1906 0000342 167.3580 192.7449 15.75084207  2210
STARLINK-35804          
1 66371U 25254Z   25324.64994528 -.00746164  00000+0 -53812-2 0  9994
2 66371  53.1573  24.5025 0000953  52.9166 307.1941 15.74928208  2208
STARLINK-35821          
1 66372U 25254AA  25324.77724734 -.00692276  00000+0 -50226-2 0  9999
2 66372  53.1569  23.8726 0001229  61.1136 299.0007 15.74641717  2221
STARLINK-35809          
1 66373U 25254AB  25324.64959655 -.00776341  00000+0 -56309-2 0  9992
2 66373  53.1558  24.4976 0000641 110.7556 249.3533 15.74882708  2205
STARLINK-35831          
1 66374U 25254AC  25324.77623336 -.00559672  00000+0 -40373-2 0  9991
2 66374  53.1567  23.8653 0001799  51.5032 308.6149 15.74407577  2228
STARLINK-35826          
1 66375U 25254AD  25324.71240648 -.00741604  00000+0 -54547-2 0  9993
2 66375  53.1569  24.1790 0000763  95.7492 264.3615 15.74466783  2216
SHIYAN-32 01            
1 66376U 25255A   25324.84952697  .00019001  00000+0  45075-3 0  9997
2 66376  52.9970 282.0400 0013109 333.1679  26.8645 15.41692948  1971
